start=new Date('2022-02-19T00:00:00.000Z').valueOf();
sats=[{"FILE":"3307132","BSTAR":"0.00020844000000","CLASSIFICATION_TYPE":"U","CENTER_NAME":"EARTH","DECAY_DATE":null,"ARG_OF_PERICENTER":"81.0117","NORAD_CAT_ID":"48595","COUNTRY_CODE":"US","ECCENTRICITY":"0.00017120","EPHEMERIS_TYPE":"0","APOAPSIS":"548.355","OBJECT_NAME":"STARLINK-2252","TLE_LINE1":"1 48595U 21041AU  22049.89844815  .00002826  00000-0  20844-3 0  9992","ELEMENT_SET_NO":"999","PERIAPSIS":"545.984","TIME_SYSTEM":"UTC","MEAN_MOTION_DDOT":"0.0000000000000","LAUNCH_DATE":"2021-05-15","MEAN_ANOMALY":"279.1065","REV_AT_EPOCH":"4329","OBJECT_ID":"2021-041AU","TLE_LINE2":"2 48595  53.0527 304.6702 0001712  81.0117 279.1065 15.06414422 43293","EPOCH":"2022-02-18T21:33:45.920160","GP_ID":"196334159","REF_FRAME":"TEME","MEAN_MOTION":"15.06414422","PERIOD":"95.591","SITE":"AFETR","RA_OF_ASC_NODE":"304.6702","INCLINATION":"53.0527","OBJECT_TYPE":"PAYLOAD","RCS_SIZE":"LARGE","SEMIMAJOR_AXIS":"6925.304","MEAN_ELEMENT_THEORY":"SGP4","MEAN_MOTION_DOT":"0.00002826"},{"PERIAPSIS":"546.022","ELEMENT_SET_NO":"999","MEAN_MOTION_DDOT":"0.0000000000000","LAUNCH_DATE":"2021-05-15","TIME_SYSTEM":"UTC","FILE":"3307132","CLASSIFICATION_TYPE":"U","BSTAR":"0.00051205000000","CENTER_NAME":"EARTH","APOAPSIS":"548.308","TLE_LINE1":"1 48596U 21041AV  22049.92056801  .00007357  00000-0  51205-3 0  9996","OBJECT_NAME":"STARLINK-2253","DECAY_DATE":null,"ARG_OF_PERICENTER":"61.2255","EPHEMERIS_TYPE":"0","NORAD_CAT_ID":"48596","COUNTRY_CODE":"US","ECCENTRICITY":"0.00016500","SITE":"AFETR","RA_OF_ASC_NODE":"304.5680","PERIOD":"95.591","MEAN_MOTION":"15.06415821","MEAN_ELEMENT_THEORY":"SGP4","MEAN_MOTION_DOT":"0.00007357","OBJECT_TYPE":"PAYLOAD","INCLINATION":"53.0555","SEMIMAJOR_AXIS":"6925.300","RCS_SIZE":"LARGE","TLE_LINE2":"2 48596  53.0555 304.5680 0001650  61.2255 298.8900 15.06415821 42483","MEAN_ANOMALY":"298.8900","REV_AT_EPOCH":"4248","OBJECT_ID":"2021-041AV","REF_FRAME":"TEME","GP_ID":"196334409","EPOCH":"2022-02-18T22:05:37.076064"},{"MEAN_MOTION_DOT":"0.00000234","MEAN_ELEMENT_THEORY":"SGP4","OBJECT_TYPE":"PAYLOAD","INCLINATION":"53.0556","SEMIMAJOR_AXIS":"6925.374","RCS_SIZE":"LARGE","SITE":"AFETR","RA_OF_ASC_NODE":"304.5412","PERIOD":"95.593","MEAN_MOTION":"15.06391755","REF_FRAME":"TEME","GP_ID":"196335660","EPOCH":"2022-02-18T22:16:15.254112","TLE_LINE2":"2 48597  53.0556 304.5412 0001490  72.9751 287.1402 15.06391755 43297","MEAN_ANOMALY":"287.1402","REV_AT_EPOCH":"4329","OBJECT_ID":"2021-041AW","MEAN_MOTION_DDOT":"0.0000000000000","LAUNCH_DATE":"2021-05-15","TIME_SYSTEM":"UTC","PERIAPSIS":"546.207","ELEMENT_SET_NO":"999","APOAPSIS":"548.271","TLE_LINE1":"1 48597U 21041AW  22049.92795433  .00000234  00000-0  34628-4 0  9996","OBJECT_NAME":"STARLINK-2255","ARG_OF_PERICENTER":"72.9751","DECAY_DATE":null,"EPHEMERIS_TYPE":"0","NORAD_CAT_ID":"48597","COUNTRY_CODE":"US","ECCENTRICITY":"0.00014900","BSTAR":"0.00003462800000","FILE":"3307132","CLASSIFICATION_TYPE":"U","CENTER_NAME":"EARTH"},{"PERIAPSIS":"546.044","ELEMENT_SET_NO":"999","MEAN_MOTION_DDOT":"0.0000000000000","LAUNCH_DATE":"2021-05-15","TIME_SYSTEM":"UTC","BSTAR":"0.00032644000000","FILE":"3307132","CLASSIFICATION_TYPE":"U","CENTER_NAME":"EARTH","APOAPSIS":"548.303","OBJECT_NAME":"STARLINK-2256","TLE_LINE1":"1 48598U 21041AX  22049.93162142  .00004586  00000-0  32644-3 0  9992","DECAY_DATE":null,"ARG_OF_PERICENTER":"68.2613","NORAD_CAT_ID":"48598","COUNTRY_CODE":"US","ECCENTRICITY":"0.00016310","EPHEMERIS_TYPE":"0","SITE":"AFETR","RA_OF_ASC_NODE":"304.5122","MEAN_MOTION":"15.06412979","PERIOD":"95.591","MEAN_MOTION_DOT":"0.00004586","MEAN_ELEMENT_THEORY":"SGP4","INCLINATION":"53.0540","OBJECT_TYPE":"PAYLOAD","RCS_SIZE":"LARGE","SEMIMAJOR_AXIS":"6925.309","TLE_LINE2":"2 48598  53.0540 304.5122 0001631  68.2613 291.8550 15.06412979 42489","REV_AT_EPOCH":"4248","MEAN_ANOMALY":"291.8550","OBJECT_ID":"2021-041AX","REF_FRAME":"TEME","GP_ID":"196335408","EPOCH":"2022-02-18T22:21:32.090688"},{"APOAPSIS":"548.291","TLE_LINE1":"1 48599U 21041AY  22049.89154599  .00000445  00000-0  48791-4 0  9996","OBJECT_NAME":"STARLINK-2274","ARG_OF_PERICENTER":"71.9104","DECAY_DATE":null,"EPHEMERIS_TYPE":"0","COUNTRY_CODE":"US","ECCENTRICITY":"0.00015640","NORAD_CAT_ID":"48599","FILE":"3307132","CLASSIFICATION_TYPE":"U","BSTAR":"0.00004879100000","CENTER_NAME":"EARTH","MEAN_MOTION_DDOT":"0.0000000000000","LAUNCH_DATE":"2021-05-15","TIME_SYSTEM":"UTC","PERIAPSIS":"546.124","ELEMENT_SET_NO":"999","REF_FRAME":"TEME","GP_ID":"196334659","EPOCH":"2022-02-18T21:23:49.573536","TLE_LINE2":"2 48599  53.0539 279.6825 0001564  71.9104 288.2055 15.06402009 43643","REV_AT_EPOCH":"4364","MEAN_ANOMALY":"288.2055","OBJECT_ID":"2021-041AY","MEAN_MOTION_DOT":"0.00000445","MEAN_ELEMENT_THEORY":"SGP4","OBJECT_TYPE":"PAYLOAD","INCLINATION":"53.0539","SEMIMAJOR_AXIS":"6925.342","RCS_SIZE":"LARGE","SITE":"AFETR","RA_OF_ASC_NODE":"279.6825","PERIOD":"95.592","MEAN_MOTION":"15.06402009"},{"RCS_SIZE":"LARGE","SEMIMAJOR_AXIS":"6925.292","INCLINATION":"53.0537","OBJECT_TYPE":"PAYLOAD","MEAN_MOTION_DOT":"0.00005407","MEAN_ELEMENT_THEORY":"SGP4","MEAN_MOTION":"15.06418380","PERIOD":"95.591","RA_OF_ASC_NODE":"294.5122","SITE":"AFETR","EPOCH":"2022-02-18T22:17:33.871200","GP_ID":"196334909","REF_FRAME":"TEME","OBJECT_ID":"2021-041AZ","REV_AT_EPOCH":"4343","MEAN_ANOMALY":"283.6984","TLE_LINE2":"2 48600  53.0537 294.5122 0001555  76.4178 283.6984 15.06418380 43437","TIME_SYSTEM":"UTC","LAUNCH_DATE":"2021-05-15","MEAN_MOTION_DDOT":"0.0000000000000","ELEMENT_SET_NO":"999","PERIAPSIS":"546.080","NORAD_CAT_ID":"48600","COUNTRY_CODE":"US","ECCENTRICITY":"0.00015550","EPHEMERIS_TYPE":"0","ARG_OF_PERICENTER":"76.4178","DECAY_DATE":null,"OBJECT_NAME":"STARLINK-2275","TLE_LINE1":"1 48600U 21041AZ  22049.92886425  .00005407  00000-0  38139-3 0  9990","APOAPSIS":"548.234","CENTER_NAME":"EARTH","FILE":"3307132","BSTAR":"0.00038139000000","CLASSIFICATION_TYPE":"U"},{"PERIAPSIS":"545.947","ELEMENT_SET_NO":"999","MEAN_MOTION_DDOT":"0.0000000000000","LAUNCH_DATE":"2021-05-15","TIME_SYSTEM":"UTC","FILE":"3307132","BSTAR":"0.00022043000000","CLASSIFICATION_TYPE":"U","CENTER_NAME":"EARTH","APOAPSIS":"548.416","OBJECT_NAME":"STARLINK-2713","TLE_LINE1":"1 48602U 21041BB  22049.92472235  .00003004  00000-0  22043-3 0  9990","DECAY_DATE":null,"ARG_OF_PERICENTER":"69.1106","NORAD_CAT_ID":"48602","COUNTRY_CODE":"US","ECCENTRICITY":"0.00017820","EPHEMERIS_TYPE":"0","SITE":"AFETR","RA_OF_ASC_NODE":"279.5399","MEAN_MOTION":"15.06410460","PERIOD":"95.591","MEAN_ELEMENT_THEORY":"SGP4","MEAN_MOTION_DOT":"0.00003004","INCLINATION":"53.0507","OBJECT_TYPE":"PAYLOAD","RCS_SIZE":"LARGE","SEMIMAJOR_AXIS":"6925.316","TLE_LINE2":"2 48602  53.0507 279.5399 0001782  69.1106 291.0074 15.06410460 43633","REV_AT_EPOCH":"4363","MEAN_ANOMALY":"291.0074","OBJECT_ID":"2021-041BB","GP_ID":"196335161","REF_FRAME":"TEME","EPOCH":"2022-02-18T22:11:36.011040"},{"FILE":"3307132","BSTAR":"0.00006232800000","CLASSIFICATION_TYPE":"U","CENTER_NAME":"EARTH","DECAY_DATE":null,"ARG_OF_PERICENTER":"70.6270","COUNTRY_CODE":"US","ECCENTRICITY":"0.00015500","NORAD_CAT_ID":"48603","EPHEMERIS_TYPE":"0","APOAPSIS":"548.299","OBJECT_NAME":"STARLINK-2714","TLE_LINE1":"1 48603U 21041BC  22049.90396812  .00000647  00000-0  62328-4 0  9996","ELEMENT_SET_NO":"999","PERIAPSIS":"546.153","TIME_SYSTEM":"UTC","MEAN_MOTION_DDOT":"0.0000000000000","LAUNCH_DATE":"2021-05-15","REV_AT_EPOCH":"4371","MEAN_ANOMALY":"289.4886","OBJECT_ID":"2021-041BC","TLE_LINE2":"2 48603  53.0527 274.6329 0001550  70.6270 289.4886 15.06395942 43715","EPOCH":"2022-02-18T21:41:42.845568","REF_FRAME":"TEME","GP_ID":"196335908","MEAN_MOTION":"15.06395942","PERIOD":"95.592","SITE":"AFETR","RA_OF_ASC_NODE":"274.6329","INCLINATION":"53.0527","OBJECT_TYPE":"PAYLOAD","RCS_SIZE":"LARGE","SEMIMAJOR_AXIS":"6925.361","MEAN_ELEMENT_THEORY":"SGP4","MEAN_MOTION_DOT":"0.00000647"},{"ELEMENT_SET_NO":"999","PERIAPSIS":"546.020","TIME_SYSTEM":"UTC","LAUNCH_DATE":"2021-05-15","MEAN_MOTION_DDOT":"0.0000000000000","CENTER_NAME":"EARTH","FILE":"3307132","CLASSIFICATION_TYPE":"U","BSTAR":"0.00029931000000","EPHEMERIS_TYPE":"0","ECCENTRICITY":"0.00016650","COUNTRY_CODE":"US","NORAD_CAT_ID":"48604","DECAY_DATE":null,"ARG_OF_PERICENTER":"59.0782","TLE_LINE1":"1 48604U 21041BD  22049.90581982  .00004181  00000-0  29931-3 0  9990","OBJECT_NAME":"STARLINK-2757","APOAPSIS":"548.326","PERIOD":"95.591","MEAN_MOTION":"15.06413094","RA_OF_ASC_NODE":"304.6328","SITE":"AFETR","SEMIMAJOR_AXIS":"6925.308","RCS_SIZE":"LARGE","OBJECT_TYPE":"PAYLOAD","INCLINATION":"53.0553","MEAN_MOTION_DOT":"0.00004181","MEAN_ELEMENT_THEORY":"SGP4","OBJECT_ID":"2021-041BD","REV_AT_EPOCH":"4329","MEAN_ANOMALY":"301.0371","TLE_LINE2":"2 48604  53.0553 304.6328 0001665  59.0782 301.0371 15.06413094 43296","EPOCH":"2022-02-18T21:44:22.832448","REF_FRAME":"TEME","GP_ID":"196334160"},{"TIME_SYSTEM":"UTC","LAUNCH_DATE":"2021-05-26","MEAN_MOTION_DDOT":"0.0000000000000","ELEMENT_SET_NO":"999","PERIAPSIS":"546.225","ECCENTRICITY":"0.00013980","COUNTRY_CODE":"US","NORAD_CAT_ID":"48638","EPHEMERIS_TYPE":"0","ARG_OF_PERICENTER":"79.1295","DECAY_DATE":null,"OBJECT_NAME":"STARLINK-2758","TLE_LINE1":"1 48638U 21044A   22049.92377257  .00005882  00000-0  41338-3 0  9994","APOAPSIS":"548.161","CENTER_NAME":"EARTH","CLASSIFICATION_TYPE":"U","FILE":"3307132","BSTAR":"0.00041338000000","RCS_SIZE":"LARGE","SEMIMAJOR_AXIS":"6925.328","INCLINATION":"53.0545","OBJECT_TYPE":"PAYLOAD","MEAN_ELEMENT_THEORY":"SGP4","MEAN_MOTION_DOT":"0.00005882","MEAN_MOTION":"15.06406748","PERIOD":"95.592","RA_OF_ASC_NODE":"279.5484","SITE":"AFETR","EPOCH":"2022-02-18T22:10:13.950048","REF_FRAME":"TEME","GP_ID":"196335665","OBJECT_ID":"2021-044A","MEAN_ANOMALY":"280.9852","REV_AT_EPOCH":"4074","TLE_LINE2":"2 48638  53.0545 279.5484 0001398  79.1295 280.9852 15.06406748 40746"}];
